[{"OBJECT_NAME":"EAGLET-I","OBJECT_ID":"2018-099AJ","EPOCH":"2026-03-09T16:28:56.807904","MEAN_MOTION":15.12108145,"ECCENTRICITY":0.00104863,"INCLINATION":97.4369,"RA_OF_ASC_NODE":120.9821,"ARG_OF_PERICENTER":336.8524,"MEAN_ANOMALY":23.2233,"EPHEMERIS_TYPE":0,"CLASSIFICATION_TYPE":"U","NORAD_CAT_ID":43790,"ELEMENT_SET_NO":999,"REV_AT_EPOCH":39729,"BSTAR":0.0003526184,"MEAN_MOTION_DOT":6.017e-5,"MEAN_MOTION_DDOT":0},{"OBJECT_NAME":"STARLINK-3997","OBJECT_ID":"2022-052M","EPOCH":"2026-03-09T21:34:06.004704","MEAN_MOTION":15.08842054,"ECCENTRICITY":0.00013421,"INCLINATION":53.2167,"RA_OF_ASC_NODE":278.1343,"ARG_OF_PERICENTER":90.169,"MEAN_ANOMALY":269.9456,"EPHEMERIS_TYPE":0,"CLASSIFICATION_TYPE":"U","NORAD_CAT_ID":52609,"ELEMENT_SET_NO":999,"REV_AT_EPOCH":21089,"BSTAR":8.8908519e-5,"MEAN_MOTION_DOT":1.127e-5,"MEAN_MOTION_DDOT":0}]
